{"fetched_at":"2026-04-16T02:30:09Z","count":2713,"tles":[{"name":"GNOMES-3","line1":"1 52158U 22033B   26105.43701987  .00001020  00000+0  12614-3 0  9993","line2":"2 52158  97.8245 182.8741 0011561 162.3842 197.7776 14.84850706218029","category":"Other"},{"name":"HIBARI","line1":"1 49400U 21102F   26105.59130631  .00006302  00000+0  21593-3 0  9998","line2":"2 49400  97.3312 152.2468 0013306  68.5611 291.7048 15.30471875244611","category":"Other"},{"name":"TPA-1","line1":"1 64533U 25135F   26105.58309624  .00002102  00000+0  97926-4 0  9999","line2":"2 64533  97.4606 221.0649 0006434  58.7666 301.4199 15.20990515 45333","category":"Other"},{"name":"2024-092G","line1":"1 59779U 24092G   26105.61211350  .00000085  00000+0  48263-4 0  9996","line2":"2 59779  98.6605 224.7473 0012426  37.5026 322.7022 14.31821199 99948","category":"Other"},{"name":"ELEKTRO-L 3","line1":"1 44903U 19095A   26105.59988501 -.00000090  00000+0  00000+0 0  9991","line2":"2 44903   0.0962  70.5352 0001191 311.9876 113.1510  1.00271910 23084","category":"Other"},{"name":"VIZARD-ION (RS68S)","line1":"1 61749U 24199Q   26105.57355435  .00018860  00000+0  32506-3 0  9994","line2":"2 61749  97.3090 340.7122 0008996 134.4676 225.7313 15.51053560127856","category":"Other"},{"name":"LEMUR-2-CAEL","line1":"1 58903U 24022E   26105.57435617  .00009201  00000+0  24009-3 0  9996","line2":"2 58903  97.4166 315.7109 0006934 330.2663  29.8187 15.39021962122706","category":"Other"},{"name":"ASTROCAST-0103","line1":"1 47487U 21006CC  26105.16188602  .00268234  00000+0  10999-2 0  9999","line2":"2 47487  97.2563 176.3800 0003675 148.0049 212.1446 15.85341376291270","category":"Other"},{"name":"2024-199R","line1":"1 61750U 24199R   26105.57699644  .00019471  00000+0  33602-3 0  9996","line2":"2 61750  97.3058 340.1902 0008990 144.2317 215.9539 15.51011256127832","category":"Other"},{"name":"HILAT","line1":"1 14154U 83063A   26104.82165583  .00000249  00000+0  75184-4 0  9999","line2":"2 14154  82.0256 219.9243 0040581 122.1283 353.8902 14.38672521238470","category":"Other"},{"name":"SVOM","line1":"1 60089U 24116B   26105.52330251  .00000764  00000+0  75861-4 0  9999","line2":"2 60089  28.9948 153.4888 0005400 116.7123 243.4024 14.83398365 98288","category":"Other"},{"name":"2025-274B","line1":"1 66651U 25274B   26105.52468001  .00001375  00000+0  13795-3 0  9997","line2":"2 66651  97.7460  35.6121 0011388 193.5614 166.5301 14.92884279 20869","category":"Other"},{"name":"GEOSCAN 4 (RS92S4)","line1":"1 64892U 25155S   26105.57519780  .00009012  00000+0  29695-3 0  9998","line2":"2 64892  97.4507  74.5764 0008180  58.8615 301.3427 15.31668407 71230","category":"Other"},{"name":"PVCC","line1":"1 58025U 23155K   26105.61161535  .00003331  00000+0  18085-3 0  9992","line2":"2 58025  97.5724 182.3539 0004018  10.0086 350.1226 15.15231313138506","category":"Other"},{"name":"METHANESAT","line1":"1 59101U 24043D   24094.61876276  .00003684  00000+0  37412-3 0  9991","line2":"2 59101  97.7502 219.2452 0010702 171.4130 188.7274 14.91398659  4433","category":"Other"},{"name":"GONETS-M 24","line1":"1 54151U 22139B   26105.60932760  .00000009  00000+0 -63858-5 0  9994","line2":"2 54151  82.5027  26.2799 0017315  12.0695 348.0797 12.42888636157871","category":"Other"},{"name":"LIZZIESAT-3 (LS-3)","line1":"1 63233U 25052Z   26105.61381547  .00002774  00000+0  12756-3 0  9993","line2":"2 63233  97.3991 358.5610 0006912  35.4672 324.7023 15.21167930 60293","category":"Other"},{"name":"BUGSAT-1 (TITA)","line1":"1 40014U 14033E   26105.56538212  .00003105  00000+0  16881-3 0  9991","line2":"2 40014  98.0413 194.4927 0029120  37.2122 323.1119 15.14970127646354","category":"Other"},{"name":"STARLINK-3100","line1":"1 49144U 21082Q   26105.55294296  .00000741  00000+0  69846-4 0  9999","line2":"2 49144  70.0007 201.4979 0003554 270.8272  89.2480 14.98343640251501","category":"Starlink"},{"name":"ION SCV-008","line1":"1 55051U 23001AU  26105.50847087  .00003373  00000+0  12685-3 0  9995","line2":"2 55051  97.5676 200.8301 0014096 229.7017 130.2991 15.27790796181761","category":"Other"},{"name":"NPSAT1","line1":"1 44340U 19036B   26105.50817898  .00003272  00000+0  45020-3 0  9991","line2":"2 44340  23.9987 265.7902 0007314 223.6557 136.3361 14.73997859363233","category":"Other"},{"name":"SPACEMOBILE-006","line1":"1 67232U 25309A   26104.85285869  .00001886  00000+0  10631-3 0  9999","line2":"2 67232  52.9973 261.6458 0009496 302.3024  57.7049 15.18252050 16975","category":"Other"},{"name":"OTTER","line1":"1 62623U 25009Q   26105.45492306  .00004966  00000+0  18071-3 0  9996","line2":"2 62623  97.4041 187.8986 0005502 158.1583 201.9892 15.28683483 69336","category":"Other"},{"name":"OPS 7613 (P/L 4)","line1":"1 04237U 69082E   26105.13612794 -.00000016  00000+0  26876-4 0  9998","line2":"2 04237  70.0146 238.5795 0022136 218.0887 315.4148 13.95985985877508","category":"Other"},{"name":"R2","line1":"1 46913U 20081J   26105.32903311  .00004414  00000+0  17909-3 0  9991","line2":"2 46913  36.8972  88.3047 0005174 115.1236 245.0049 15.24519653302387","category":"Other"},{"name":"IRIDE-MS2-HEO-4","line1":"1 64582U 25135BG  26105.56222693  .00000794  00000+0  79494-4 0  9996","line2":"2 64582  97.7639 220.7493 0004544 171.9924 188.1369 14.94188650 44555","category":"Other"},{"name":"VIGORIDE-3","line1":"1 52760U 22057AE  26105.37101115  .00002971  00000+0  11633-3 0  9994","line2":"2 52760  97.6499 243.7493 0008136 354.3596   5.7549 15.26614922215579","category":"Other"},{"name":"SCISAT 1","line1":"1 27858U 03036A   26105.48912742  .00000328  00000+0  46643-4 0  9992","line2":"2 27858  73.9287 295.9104 0006977   4.8751 355.2492 14.81374889222168","category":"Other"},{"name":"IONOSFERA-M 3","line1":"1 64876U 25155A   26105.59959922 -.00000001  00000+0  19255-4 0  9990","line2":"2 64876  98.5978  69.0985 0002310  61.7279 298.4131 14.21475249 37517","category":"Other"},{"name":"2023-091AS","line1":"1 57206U 23091AS  26105.59845567  .00032136  00000+0  47622-3 0  9996","line2":"2 57206  97.5087 181.9700 0004017 244.4945 115.5894 15.55190698155641","category":"Other"},{"name":"OOV-CUBE (TUBSAT-30)","line1":"1 60240U 24128F   26105.43551288  .00001141  00000+0  99193-4 0  9990","line2":"2 60240  61.9932  84.3316 0051486 120.0340 240.5874 15.02463577 96682","category":"Other"},{"name":"PRSC-S1","line1":"1 65055U 25164A   26105.20363753  .00003062  00000+0  19922-3 0  9998","line2":"2 65055  41.1301 282.3829 0006268 263.9030  96.1071 15.09418371 38938","category":"Other"},{"name":"TIANYI B","line1":"1 64049U 25103B   26105.62340419  .00001806  00000+0  87826-4 0  9996","line2":"2 64049  97.3823 178.8650 0003532  66.5184 293.6422 15.19658633 50566","category":"Other"},{"name":"SCOOBII","line1":"1 57484U 23109D   23350.72925839  .00008044  00000+0  39042-3 0  9997","line2":"2 57484   5.0088 303.7051 0007702 287.1264  72.8001 15.13088404 21179","category":"Other"},{"name":"PRSS-1","line1":"1 43530U 18056B   26105.59833149 -.00000015  00000+0  45346-5 0  9994","line2":"2 43530  97.7860 175.1941 0001375  97.6235 262.5135 14.81888949419165","category":"Other"},{"name":"BRO-10","line1":"1 58331U 23174CD  26104.62845394  .00450674  88492-4  92549-3 0  9994","line2":"2 58331  97.3585 200.6471 0009764 268.8749  91.1410 15.99240959136402","category":"Other"},{"name":"ION-MK01","line1":"1 46274U 20061C   26105.15343685  .01185225  23058-5  61687-3 0  9999","line2":"2 46274  97.1798 186.7062 0008343 245.5469 114.4951 16.20233912313471","category":"Other"},{"name":"SUPERVIEW NEO-1 02","line1":"1 52322U 22043C   26105.61083662  .00002500  00000+0  13387-3 0  9992","line2":"2 52322  97.3428 180.4355 0002416 147.0234 213.1150 15.15914398220091","category":"Other"},{"name":"ICEYE-X7","line1":"1 46496U 20068L   26105.65087205  .00006148  00000+0  21335-3 0  9997","line2":"2 46496  97.7457  69.4257 0007890 172.3833 187.7528 15.30157734305220","category":"Other"},{"name":"SKYBEE-A01","line1":"1 62671U 25009BQ  26105.58003284  .00001486  00000+0  70707-4 0  9995","line2":"2 62671  97.4000 185.2807 0005285 175.8276 184.3004 15.20699953126829","category":"Other"},{"name":"TIANQI-23","line1":"1 57794U 23135C   26105.58055406 -.00000095  00000+0  28221-4 0  9996","line2":"2 57794  49.9732  55.9549 0013989  39.1880 321.0043 14.23122399135710","category":"Other"},{"name":"SAMSAT-IONOSPHERE (RS7*)","line1":"1 61784U 24199BB  26105.57213413  .00024173  00000+0  39340-3 0  9999","line2":"2 61784  97.3057 340.2031 0011031 144.1307 216.0689 15.52591217127839","category":"Other"},{"name":"WREN-1","line1":"1 60478U 24149L   26105.18370814  .00010123  00000+0  26288-3 0  9996","line2":"2 60478  97.3778 188.7546 0005706 126.0934 234.0840 15.39146400 92623","category":"Other"},{"name":"R5-S4","line1":"1 60206U 24125D   26105.14232516  .00006747  00000+0  16286-3 0  9995","line2":"2 60206  97.2476 316.8059 0018566  99.4038 260.9309 15.41344879 99410","category":"Other"},{"name":"GHOST-4","line1":"1 59133U 24043AM  26105.64236769  .00008978  00000+0  21439-3 0  9994","line2":"2 59133  97.5510 248.3222 0009022  84.5250 275.7025 15.41725181117899","category":"Other"},{"name":"NUSAT-42 (M WONENBURGER)","line1":"1 56966U 23084AL  26105.62312267  .00013952  00000+0  32203-3 0  9994","line2":"2 56966  97.5626 247.1972 0006958 117.7480 242.4474 15.42641934158423","category":"Other"},{"name":"NUSAT-6 (HYPATIA)","line1":"1 46272U 20061A   24257.70763688  .07870265  24277-5  55612-3 0  9999","line2":"2 46272  97.2026 336.2175 0013029 264.7707  95.2106 16.40036993225456","category":"Other"},{"name":"OV3-3","line1":"1 02389U 66070A   26105.18676157  .00008393  00000+0  38038-3 0  9993","line2":"2 02389  81.3306  26.5486 1016430 321.1082  32.0966 13.44134474590508","category":"Other"},{"name":"COSMOS 2488 (RODNIK-S 7)","line1":"1 39483U 13076A   26105.57290457 -.00000027  00000+0 -26781-3 0  9994","line2":"2 39483  82.4871 207.6984 0018808 229.0203 130.9250 12.42903102558112","category":"Other"}]}